0 SL-12 R/B(AUX MOTOR)
1 15773U 85042E   13281.84427506  .00000108  00000-0  79945-4 0  1408
2 15773 066.5885 167.3204 0039586 233.4416 195.4273 14.26495491474955
0 SL-12 R/B(AUX MOTOR)
1 15773U 85042E   13283.10740863  .00000102  00000-0  77104-4 0  1413
2 15773 066.5884 164.0207 0039499 232.6760 201.9894 14.26496388475136
0 SL-12 R/B(AUX MOTOR)
1 15773U 85042E   13284.17059175  .00000054  00000-0  57597-4 0  1421
2 15773 066.5882 161.2433 0039427 232.0283 261.7498 14.26497220475285
0 SL-12 R/B(AUX MOTOR)
1 15773U 85042E   13285.84200819 -.00000013  00000-0  30001-4 0  1437
2 15773 066.5880 156.8769 0039315 231.0188 204.9661 14.26498189475527
0 SL-12 R/B(AUX MOTOR)
1 15773U 85042E   13287.12211227  .00000033  00000-0  48830-4 0  1446
2 15773 066.5877 153.5327 0039228 230.2700 298.6605 14.26498205475708
0 SL-12 R/B(AUX MOTOR)
1 15773U 85042E   13288.16776808  .00000139  00000-0  92572-4 0  1452
2 15773 066.5875 150.8008 0039159 229.6510 268.4071 14.26498372475859
0 SL-12 R/B(AUX MOTOR)
1 15773U 85042E   13289.83897490  .00000151  00000-0  97513-4 0  1463
2 15773 066.5874 146.4349 0039061 228.6781 210.5245 14.26498274476097
0 SL-12 R/B(AUX MOTOR)
1 15773U 85042E   13291.11326309  .00000104  00000-0  78219-4 0  1474
2 15773 066.5873 143.1058 0038967 227.8908 274.3952 14.26499100476275
0 SL-12 R/B(AUX MOTOR)
1 15773U 85042E   13292.16428655  .00000043  00000-0  52953-4 0  1487
2 15773 066.5874 140.3599 0038902 227.2569 271.7159 14.26500059476424
0 SL-12 R/B(AUX MOTOR)
1 15773U 85042E   13293.84325135  .00000007  00000-0  38239-4 0  1494
2 15773 066.5875 135.9736 0038790 226.2506 253.7054 14.26501180476669
0 SL-12 R/B(AUX MOTOR)
1 15773U 85042E   13295.10895240  .00000045  00000-0  53808-4 0  1507
2 15773 066.5876 132.6669 0038702 225.4876 273.4724 14.26501253476847
